NOAA 19                 
1 33591U 09005A   24118.88422076  .00000467  00000+0  27486-3 0  9994
2 33591  99.0513 174.1426 0014810  76.1052 284.1765 14.12983573784522
GOES 14                 
1 35491U 09033A   24118.54089019 -.00000052  00000+0  00000+0 0  9995
2 35491   0.2194 109.9853 0003640 318.0085 234.1284  1.00270725 54280
DMSP 5D-3 F18 (USA 210) 
1 35951U 09057A   24118.88616341  .00000726  00000+0  40473-3 0  9992
2 35951  98.8111  94.9228 0010297 315.1101  44.9238 14.14082686749255
EWS-G2 (GOES 15)        
1 36411U 10008A   24118.56629921  .00000050  00000+0  00000+0 0  9993
2 36411   0.1662  90.6136 0001264 195.4597 195.2145  1.00275339 51812
COMS 1                  
1 36744U 10032A   24118.86583748 -.00000332  00000+0  00000+0 0  9992
2 36744   2.7999  85.0764 0001012 325.6898 245.4010  1.00272604 50820
FENGYUN 3B              
1 37214U 10059A   24118.86605545  .00000231  00000+0  14436-3 0  9993
2 37214  99.0596 146.2468 0021344 233.1630 300.2176 14.14479158697139
SUOMI NPP               
1 37849U 11061A   24118.85812966  .00000330  00000+0  17722-3 0  9998
2 37849  98.7194  57.6004 0001704  76.5253 283.6113 14.19556439647720
FENGYUN 2F              
1 38049U 12002A   24118.83521521 -.00000343  00000+0  00000+0 0  9991
2 38049   5.4696  73.6088 0003207  51.8146 143.3973  1.00263333 45061
METEOSAT-10 (MSG-3)     
1 38552U 12035B   24118.84042687  .00000006  00000+0  00000+0 0  9993
2 38552   2.8528  60.5404 0002174 300.6665 157.7309  1.00269298 43397
METOP-B                 
1 38771U 12049A   24118.84696150  .00000403  00000+0  20396-3 0  9996
2 38771  98.6312 177.1885 0001523 123.0574 237.0750 14.21516253602391
INSAT-3D                
1 39216U 13038B   24118.42727344 -.00000144  00000+0  00000+0 0  9993
2 39216   0.0078 248.7057 0001065  71.6493 131.4658  1.00273845 39249
FENGYUN 3C              
1 39260U 13052A   24118.86327851  .00000312  00000+0  17795-3 0  9994
2 39260  98.4295 121.1381 0012273 110.2298 250.0198 14.16187694548205
METEOR-M 2              
1 40069U 14037A   24118.82474790  .00000419  00000+0  21237-3 0  9992
2 40069  98.4364 115.3169 0006570 136.1792 223.9908 14.20942777508478
HIMAWARI-8              
1 40267U 14060A   24118.86836115 -.00000264  00000+0  00000+0 0  9995
2 40267   0.0481 117.5124 0001141 293.3886 258.7181  1.00271267 35041
FENGYUN 2G              
1 40367U 14090A   24118.57909865 -.00000289  00000+0  00000+0 0  9997
2 40367   3.6609  82.0788 0002512  72.7029   9.4095  1.00267616 34177
METEOSAT-11 (MSG-4)     
1 40732U 15034A   24116.19392822  .00000082  00000+0  00000+0 0  9997
2 40732   1.2604  67.6296 0000821 231.7680 353.8368  1.00281927 32163
ELEKTRO-L 2             
1 41105U 15074A   24118.26486234 -.00000102  00000+0  00000+0 0  9991
2 41105   4.7121  80.0488 0001221 229.8904 346.6369  1.00272916 30677
INSAT-3DR               
1 41752U 16054A   24118.56873584 -.00000065  00000+0  00000+0 0  9997
2 41752   0.1614  88.7968 0010572 187.1249 218.8722  1.00270254 27994
HIMAWARI-9              
1 41836U 16064A   24118.36732767 -.00000262  00000+0  00000+0 0  9995
2 41836   0.0082 115.7720 0001004 286.3377  86.7253  1.00273416 27383
GOES 16                 
1 41866U 16071A   24117.96650253 -.00000234  00000+0  00000+0 0  9999
2 41866   0.0269 280.2355 0000805 145.2885  62.6643  1.00271130 27275
FENGYUN 4A              
1 41882U 16077A   24118.45196845 -.00000185  00000+0  00000+0 0  9995
2 41882   0.3291  83.3873 0008900 344.6544  37.2080  1.00264189 27100
CYGFM05                 
1 41884U 16078A   24118.72038021  .00015089  00000+0  57453-3 0  9995
2 41884  34.9541 260.3211 0011877  96.5839 263.6228 15.25830369408465
CYGFM04                 
1 41885U 16078B   24118.73843469  .00015868  00000+0  58834-3 0  9996
2 41885  34.9476 244.7557 0009507 121.9577 238.2063 15.26724517408611
CYGFM02                 
1 41886U 16078C   24118.77280620  .00015960  00000+0  58604-3 0  9993
2 41886  34.9541 246.9039 0012525 110.1148 250.0916 15.27010468408615
CYGFM01                 
1 41887U 16078D   24118.75859984  .00014819  00000+0  56931-3 0  9990
2 41887  34.9491 263.7937 0012060  87.7054 272.5041 15.25534582408426
CYGFM08                 
1 41888U 16078E   24118.74378749  .00016345  00000+0  60935-3 0  9990
2 41888  34.9462 252.5577 0012756 111.4821 248.7256 15.26504366408500
CYGFM07                 
1 41890U 16078G   24118.73155731  .00016171  00000+0  59765-3 0  9992
2 41890  34.9497 244.2409 0009259 120.4703 239.6927 15.26828425408617
CYGFM03                 
1 41891U 16078H   24118.63271559  .00015637  00000+0  57925-3 0  9991
2 41891  34.9518 246.0000 0010400 103.2438 256.9437 15.26747320408435
FENGYUN 3D              
1 43010U 17072A   24118.83217344  .00000371  00000+0  19801-3 0  9995
2 43010  98.9069  73.2039 0002509 105.7067 254.4386 14.19326525334276
NOAA 20 (JPSS-1)        
1 43013U 17073A   24118.80582206  .00000294  00000+0  15993-3 0  9990
2 43013  98.7036  57.5780 0001588  47.7616 312.3694 14.19571743333752
GOES 17                 
1 43226U 18022A   24118.54431024 -.00000078  00000+0  00000+0 0  9993
2 43226   0.0057  29.1446 0000862   4.9086 273.2212  1.00271790 22594
FENGYUN 2H              
1 43491U 18050A   24118.85609094 -.00000117  00000+0  00000+0 0  9990
2 43491   1.0119  87.5406 0001447  11.8544 144.4090  1.00273768 21687
METOP-C                 
1 43689U 18087A   24118.81328512  .00000399  00000+0  20229-3 0  9998
2 43689  98.7273 178.6685 0001549 201.1163 158.9951 14.21482181283960
GEO-KOMPSAT-2A          
1 43823U 18100A   24117.53863831 -.00000329  00000+0  00000+0 0  9995
2 43823   0.0568  79.1875 0002220 349.8633 108.1451  1.00273095 19793
METEOR-M2 2             
1 44387U 19038A   24118.90748724  .00000196  00000+0  10546-3 0  9998
2 44387  98.8234  87.9448 0002392  97.4150 262.7300 14.23876715250230
ARKTIKA-M 1             
1 47719U 21016A   24116.41448032  .00000157  00000+0  00000+0 0  9999
2 47719  63.1363 157.7950 6925103 268.8111  18.0420  2.00603176 23082
FENGYUN 3E              
1 49008U 21062A   24118.88771979  .00000112  00000+0  73773-4 0  9998
2 49008  98.7331 120.8420 0002029 141.7321 218.3999 14.19746669145850
GOES 18                 
1 51850U 22021A   24117.02377255  .00000112  00000+0  00000+0 0  9994
2 51850   0.0046  34.1024 0000446   0.7080  51.2621  1.00272532  7921
NOAA 21 (JPSS-2)        
1 54234U 22150A   24118.83951670  .00000342  00000+0  18305-3 0  9991
2 54234  98.7490  57.3305 0000697  67.3994 292.7256 14.19556946 75836
METEOSAT-12 (MTG-I1)    
1 54743U 22170C   24118.85952199  .00000005  00000+0  00000+0 0  9992
2 54743   0.4403  28.7881 0001302  33.3203 103.2630  1.00274504  5148
TIANMU-1 03             
1 55973U 23039A   24118.83734512  .00016378  00000+0  65298-3 0  9992
2 55973  97.4637 269.6609 0011207 286.0865  73.9139 15.25220260 61184
TIANMU-1 04             
1 55974U 23039B   24118.82042595  .00016785  00000+0  67001-3 0  9991
2 55974  97.4559 269.2583 0008281 285.3929  74.6393 15.25201578 61176
TIANMU-1 05             
1 55975U 23039C   24118.87179250  .00016230  00000+0  64846-3 0  9995
2 55975  97.4608 269.5995 0004488 277.8030  82.2698 15.25200591 61173
TIANMU-1 06             
1 55976U 23039D   24118.85629253  .00016376  00000+0  65438-3 0  9996
2 55976  97.4622 269.6903 0004011 280.6094  79.4692 15.25195588 61175
METEOR-M2 3             
1 57166U 23091A   24118.87256961  .00000107  00000+0  65973-4 0  9991
2 57166  98.7170 173.9864 0002818 277.0557  83.0301 14.23886430 43460
TIANMU-1 07             
1 57399U 23101A   24118.82543966  .00009815  00000+0  50863-3 0  9996
2 57399  97.3667 177.4086 0005110  24.2258 335.9215 15.16369379 42796
TIANMU-1 08             
1 57400U 23101B   24118.79533190  .00009116  00000+0  47229-3 0  9999
2 57400  97.3652 177.2584 0007424  22.6745 337.4815 15.16385917 42785
TIANMU-1 09             
1 57401U 23101C   24118.84310277  .00010822  00000+0  56060-3 0  9994
2 57401  97.3609 177.1795 0007693  17.2642 342.8852 15.16342735 42798
TIANMU-1 10             
1 57402U 23101D   24118.87457243  .00009696  00000+0  50273-3 0  9990
2 57402  97.3689 177.4340 0009830  13.6412 346.5085 15.16324439 42796
FENGYUN 3F              
1 57490U 23111A   24118.84427135  .00000270  00000+0  14837-3 0  9997
2 57490  98.7718 188.4339 0000797 143.6397 216.4834 14.19800142 38121
TIANMU-1 11             
1 58645U 23205A   24118.84831281  .00008316  00000+0  45580-3 0  9993
2 58645  97.4073 145.2525 0010812 209.9364 150.1251 15.14393247 18899
TIANMU-1 12             
1 58646U 23205B   24118.79855570  .00009096  00000+0  49818-3 0  9999
2 58646  97.4061 145.1432 0009585 200.3312 159.7540 15.14401608 18871
TIANMU-1 13             
1 58647U 23205C   24118.83105228  .00009772  00000+0  53502-3 0  9999
2 58647  97.4087 145.1497 0010024 186.1654 173.9456 15.14390428 18872
TIANMU-1 14             
1 58648U 23205D   24118.81509378  .00009472  00000+0  51849-3 0  9991
2 58648  97.4015 145.0479 0010467 187.0190 173.0898 15.14399474 18870
TIANMU-1 19             
1 58660U 23208A   24118.81790801  .00010899  00000+0  59971-3 0  9990
2 58660  97.4056 232.5140 0009970 172.9518 187.1856 15.14181586 18547
TIANMU-1 20             
1 58661U 23208B   24118.84808298  .00011597  00000+0  62338-3 0  9991
2 58661  97.3988 232.5045 0010509 182.8532 177.2643 15.14994558 18557
TIANMU-1 21             
1 58662U 23208C   24118.80335255  .00013058  00000+0  68555-3 0  9997
2 58662  97.4024 232.6293 0010199 184.0470 176.0682 15.15803648 18556
TIANMU-1 22             
1 58663U 23208D   24118.83414834  .00010179  00000+0  56046-3 0  9995
2 58663  97.4045 232.6163 0005483 186.7107 173.4052 15.14205544 18554
